NORAD_CAT_ID,OBJECT_NAME,OBJECT_TYPE,EPOCH,MEAN_MOTION,ECCENTRICITY,INCLINATION,RA_OF_ASC_NODE,ARG_OF_PERICENTER,MEAN_ANOMALY,BSTAR,MEAN_MOTION_DOT,MEAN_MOTION_DDOT,TLE_LINE0,TLE_LINE1,TLE_LINE2,SEMIMAJOR_AXIS,PERIOD,APOGEE,PERIGEE,DECAYED
49438.0,STARLINK-3044,PAYLOAD,2022-09-10 18:36:35,15.08848248,0.0001781,53.217,176.9298,58.3218,301.7947,-9.9326e-05,-1.869e-05,0.0,0 STARLINK-3044,1 49438U 21104AG  22253.77541284 -.00001869  00000-0 -99326-4 0  9997,2 49438  53.2170 176.9298 0001781  58.3218 301.7947 15.08848248 46294,6917.855,95.437,540.952,538.488,0.0
49438.0,STARLINK-3044,PAYLOAD,2022-09-11 04:08:54,15.08852514,0.0001740999999999,53.2169,175.1452,58.0261,302.09,-7.898e-05,-1.545e-05,0.0,0 STARLINK-3044,1 49438U 21104AG  22254.17284772 -.00001545  00000-0 -78980-4 0  9992,2 49438  53.2169 175.1452 0001741  58.0261 302.0900 15.08852514 46357,6917.842,95.437,540.9119999999998,538.503,0.0
49438.0,STARLINK-3044,PAYLOAD,2022-09-11 18:27:23,15.08831169,0.0001628,53.217,172.4689,58.2411,301.8739,5.5284e-05,5.92e-06,0.0,0 STARLINK-3044,1 49438U 21104AG  22254.76901728  .00000592  00000-0  55284-4 0  9995,2 49438  53.2170 172.4689 0001628  58.2411 301.8739 15.08831169 47513,6917.906999999997,95.438,540.899,538.646,0.0
49438.0,STARLINK-3044,PAYLOAD,2022-09-12 03:59:41,15.0884625,0.0001748,53.2169,170.6849,55.9491,304.1667,0.00011818,1.594e-05,0.0,0 STARLINK-3044,1 49438U 21104AG  22255.16644740  .00001594  00000-0  11818-3 0  9995,2 49438  53.2169 170.6849 0001748  55.9491 304.1667 15.08846250 46505,6917.861,95.437,540.936,538.5169999999998,0.0
49438.0,STARLINK-3044,PAYLOAD,2022-09-12 18:18:09,15.08837952,0.0001574,53.2171,168.0085,55.7979,304.3163,2.0486e-05,3.8e-07,0.0,0 STARLINK-3044,1 49438U 21104AG  22255.76261483  .00000038  00000-0  20486-4 0  9994,2 49438  53.2171 168.0085 0001574  55.7979 304.3163 15.08837952 47667,6917.887,95.438,540.841,538.663,0.0
49438.0,STARLINK-3044,PAYLOAD,2022-09-13 03:50:28,15.08837132,0.0001748,53.2171,166.2244,56.1319,303.9840000000001,1.3857e-05,-6.8e-07,0.0,0 STARLINK-3044,1 49438U 21104AG  22256.16005677 -.00000068  00000-0  13857-4 0  9998,2 49438  53.2171 166.2244 0001748  56.1319 303.9840 15.08837132 46655,6917.889,95.438,540.9630000000002,538.545,0.0
49438.0,STARLINK-3044,PAYLOAD,2022-09-14 03:41:15,15.08844351,0.0001652,53.2179,161.7637,62.8152,297.3008,8.5547e-06,-1.52e-06,0.0,0 STARLINK-3044,1 49438U 21104AG  22257.15365240 -.00000152  00000-0  85547-5 0  9993,2 49438  53.2179 161.7637 0001652  62.8152 297.3008 15.08844351 47870,6917.8669999999975,95.437,540.875,538.589,0.0
49438.0,STARLINK-3044,PAYLOAD,2022-09-14 17:59:44,15.08819675,0.0001875999999999,53.2168,159.0897,55.1308,304.986,0.00019554,2.824e-05,0.0,0 STARLINK-3044,1 49438U 21104AG  22257.74982248  .00002824  00000-0  19554-3 0  9991,2 49438  53.2168 159.0897 0001876  55.1308 304.9860 15.08819675 46895,6917.943,95.439,541.105,538.51,0.0
49438.0,STARLINK-3044,PAYLOAD,2022-09-15 03:32:03,15.08837168,0.0001829,53.2166,157.3054,56.8435,303.2733,9.3736e-05,1.204e-05,0.0,0 STARLINK-3044,1 49438U 21104AG  22258.14725755  .00001204  00000-0  93736-4 0  9990,2 49438  53.2166 157.3054 0001829  56.8435 303.2733 15.08837168 48021,6917.889,95.438,541.019,538.489,0.0
49438.0,STARLINK-3044,PAYLOAD,2022-09-15 09:53:35,15.08837711,0.0001818,53.2162,156.1158,55.32899999999999,304.7873,3.7098e-05,3.02e-06,0.0,0 STARLINK-3044,1 49438U 21104AG  22258.41221970  .00000302  00000-0  37098-4 0  9997,2 49438  53.2162 156.1158 0001818  55.3290 304.7873 15.08837711 46999,6917.887,95.438,541.01,538.495,0.0
49438.0,STARLINK-3044,PAYLOAD,2022-09-15 17:50:31,15.08836115,0.0001675,53.2168,154.6285,56.1415,303.9736,0.0001155999999999,1.552e-05,0.0,0 STARLINK-3044,1 49438U 21104AG  22258.74341678  .00001552  00000-0  11560-3 0  9994,2 49438  53.2168 154.6285 0001675  56.1415 303.9736 15.08836115 47041,6917.892,95.438,540.9159999999998,538.599,0.0
49438.0,STARLINK-3044,PAYLOAD,2022-09-16 00:12:04,15.08834096,0.000165,53.2173,153.4387,57.2213,302.8938,9.3739e-05,1.204e-05,0.0,0 STARLINK-3044,1 49438U 21104AG  22259.00837976  .00001204  00000-0  93739-4 0  9998,2 49438  53.2173 153.4387 0001650  57.2213 302.8938 15.08834096 47080,6917.898,95.438,540.905,538.622,0.0
49438.0,STARLINK-3044,PAYLOAD,2022-09-16 20:52:05,15.08831564,0.0001729,53.2169,149.5729,61.2428,298.8738,3.9281e-05,3.37e-06,0.0,0 STARLINK-3044,1 49438U 21104AG  22259.86950673  .00000337  00000-0  39281-4 0  9990,2 49438  53.2169 149.5729 0001729  61.2428 298.8738 15.08831564 48283,6917.906,95.438,540.967,538.575,0.0
49438.0,STARLINK-3044,PAYLOAD,2022-09-17 09:35:11,15.08818015,0.0001602,53.2171,147.1942,55.3072,304.8071,7.6997e-05,9.37e-06,0.0,0 STARLINK-3044,1 49438U 21104AG  22260.39943733  .00000937  00000-0  76997-4 0  9990,2 49438  53.2171 147.1942 0001602  55.3072 304.8071 15.08818015 47290,6917.948,95.439,540.9209999999998,538.7040000000002,0.0
49438.0,STARLINK-3044,PAYLOAD,2022-09-17 20:42:52,15.0883189,0.0001574,53.2169,145.1115,53.1374,306.9762,6.7645e-06,-1.8e-06,0.0,0 STARLINK-3044,1 49438U 21104AG  22260.86311287 -.00000180  00000-0  67645-5 0  9997,2 49438  53.2169 145.1115 0001574  53.1374 306.9762 15.08831890 48439,6917.905,95.438,540.859,538.681,0.0
49438.0,STARLINK-3044,PAYLOAD,2022-09-17 22:18:16,15.08832291,0.0001593,53.217,144.8143,53.5291,306.5847,2.3095e-05,7.9e-07,0.0,0 STARLINK-3044,1 49438U 21104AG  22260.92935249  .00000079  00000-0  23095-4 0  9990,2 49438  53.2170 144.8143 0001593  53.5291 306.5847 15.08832291 47379,6917.904,95.438,540.871,538.6669999999998,0.0
49438.0,STARLINK-3044,PAYLOAD,2022-09-18 15:47:29,15.08835071,0.0001729,53.217,141.5425,54.5409,305.5744,0.00019439,2.807e-05,0.0,0 STARLINK-3044,1 49438U 21104AG  22261.65798605  .00002807  00000-0  19439-3 0  9991,2 49438  53.2170 141.5425 0001729  54.5409 305.5744 15.08835071 48554,6917.895,95.438,540.957,538.564,0.0
49438.0,STARLINK-3044,PAYLOAD,2022-09-18 20:33:39,15.08840176,0.000171,53.2167,140.6521,55.216,304.8993,0.0002248,3.291e-05,0.0,0 STARLINK-3044,1 49438U 21104AG  22261.85670213  .00003291  00000-0  22480-3 0  9995,2 49438  53.2167 140.6521 0001710  55.2160 304.8993 15.08840176 47514,6917.88,95.438,540.928,538.562,0.0
49438.0,STARLINK-3044,PAYLOAD,2022-09-18 23:44:25,15.08832888,0.0001674,53.2158,140.0592,51.0954,309.0187,0.00014818,2.071e-05,0.0,0 STARLINK-3044,1 49438U 21104AG  22261.98918921  .00002071  00000-0  14818-3 0  9991,2 49438  53.2158 140.0592 0001674  51.0954 309.0187 15.08832888 47535,6917.901999999999,95.438,540.925,538.609,0.0
49438.0,STARLINK-3044,PAYLOAD,2022-09-19 21:59:49,15.08847558,0.0001808,53.2164,135.8948,54.5716,305.5444,0.00012974,1.778e-05,0.0,0 STARLINK-3044,1 49438U 21104AG  22262.91654098  .00001778  00000-0  12974-3 0  9991,2 49438  53.2164 135.8948 0001808  54.5716 305.5444 15.08847558 47674,6917.857,95.437,540.9730000000002,538.472,0.0
49438.0,STARLINK-3044,PAYLOAD,2022-09-20 01:10:35,15.08844325,0.0001617,53.2168,135.2997,53.3237,306.7903,8.6768e-05,1.093e-05,0.0,0 STARLINK-3044,1 49438U 21104AG  22263.04902361  .00001093  00000-0  86768-4 0  9998,2 49438  53.2168 135.2997 0001617  53.3237 306.7903 15.08844325 48762,6917.8669999999975,95.437,540.851,538.614,0.0
49438.0,STARLINK-3044,PAYLOAD,2022-09-20 09:07:31,15.08843824,0.0001661,53.217,133.8129,55.0837,305.0311,2.3614e-06,-2.5e-06,0.0,0 STARLINK-3044,1 49438U 21104AG  22263.38022523 -.00000250  00000-0  23614-5 0  9995,2 49438  53.2170 133.8129 0001661  55.0837 305.0311 15.08843824 47745,6917.869000000002,95.437,540.883,538.585,0.0
49438.0,STARLINK-3044,PAYLOAD,2022-09-21 13:44:27,15.08852101,0.0001608,53.2159,128.4594,54.6768,305.4375,-0.00021956,-3.782e-05,0.0,0 STARLINK-3044,1 49438U 21104AG  22264.57254498 -.00003782  00000-0 -21956-3 0  9994,2 49438  53.2159 128.4594 0001608  54.6768 305.4375 15.08852101 48997,6917.843000000003,95.437,540.821,538.596,0.0
49438.0,STARLINK-3044,PAYLOAD,2022-09-22 21:32:10,15.08837755,0.0001735,53.2162,122.5126,53.7407,306.3746,-1.1747e-05,-4.75e-06,0.0,0 STARLINK-3044,1 49438U 21104AG  22265.89734946 -.00000475  00000-0 -11747-4 0  9995,2 49438  53.2162 122.5126 0001735  53.7407 306.3746 15.08837755 48123,6917.887,95.438,540.953,538.552,0.0
49438.0,STARLINK-3044,PAYLOAD,2022-09-23 11:50:38,15.08835399,0.0001699,53.2161,119.8362,55.3435,304.7717,0.00012932,1.77e-05,0.0,0 STARLINK-3044,1 49438U 21104AG  22266.49350693  .00001770  00000-0  12932-3 0  9998,2 49438  53.2161 119.8362 0001699  55.3435 304.7717 15.08835399 48213,6917.894,95.438,540.935,538.5840000000002,0.0
49438.0,STARLINK-3044,PAYLOAD,2022-09-23 21:22:58,15.08827541,0.0001675,53.2163,118.052,54.5399,305.5749,5.5452e-05,5.94e-06,0.0,0 STARLINK-3044,1 49438U 21104AG  22266.89095721  .00000594  00000-0  55452-4 0  9998,2 49438  53.2163 118.0520 0001675  54.5399 305.5749 15.08827541 48276,6917.918000000002,95.438,540.942,538.625,0.0
49438.0,STARLINK-3044,PAYLOAD,2022-09-24 11:41:26,15.08840238,0.0001676999999999,53.2163,115.3756,55.076,305.0389,5.2145e-05,5.42e-06,0.0,0 STARLINK-3044,1 49438U 21104AG  22267.48711294  .00000542  00000-0  52145-4 0  9993,2 49438  53.2163 115.3756 0001677  55.0760 305.0389 15.08840238 49439,6917.88,95.438,540.905,538.585,0.0
49438.0,STARLINK-3044,PAYLOAD,2022-09-24 19:38:21,15.088447699999998,0.0001692,53.2163,113.8887,55.543,304.5722,8.5555e-05,1.074e-05,0.0,0 STARLINK-3044,1 49438U 21104AG  22267.81830887  .00001074  00000-0  85555-4 0  9992,2 49438  53.2163 113.8887 0001692  55.5430 304.5722 15.08844770 48410,6917.866,95.437,540.901,538.56,0.0
49438.0,STARLINK-3044,PAYLOAD,2022-09-25 01:59:54,15.08849082,0.0001678,53.2164,112.6993,55.1792,304.9358,0.00010873,1.443e-05,0.0,0 STARLINK-3044,1 49438U 21104AG  22268.08326482  .00001443  00000-0  10873-3 0  9993,2 49438  53.2164 112.6993 0001678  55.1792 304.9358 15.08849082 49520,6917.853,95.437,540.878,538.557,0.0
